NORAD_CAT_ID,OBJECT_NAME,OBJECT_TYPE,EPOCH,MEAN_MOTION,ECCENTRICITY,INCLINATION,RA_OF_ASC_NODE,ARG_OF_PERICENTER,MEAN_ANOMALY,BSTAR,MEAN_MOTION_DOT,MEAN_MOTION_DDOT,TLE_LINE0,TLE_LINE1,TLE_LINE2,SEMIMAJOR_AXIS,PERIOD,APOGEE,PERIGEE,DECAYED
53024.0,STARLINK-4289,PAYLOAD,2024-01-05 02:45:26,15.08833888,0.0001527,53.2182,51.1091,75.8529,284.2633,9.3579e-05,1.201e-05,0.0,0 STARLINK-4289,1 53024U 22076AQ  24005.11489195  .00001201  00000-0  93579-4 0  9991,2 53024  53.2182  51.1091 0001527  75.8529 284.2633 15.08833888 83501,6917.899,95.438,540.82,538.708,0.0
53024.0,STARLINK-4289,PAYLOAD,2024-01-05 09:06:59,15.08836125,0.000162,53.2182,49.9197,72.6131,287.5038,5.5136e-05,5.89e-06,0.0,0 STARLINK-4289,1 53024U 22076AQ  24005.37985349  .00000589  00000-0  55136-4 0  9996,2 53024  53.2182  49.9197 0001620  72.6131 287.5038 15.08836125 83075,6917.892,95.438,540.878,538.637,0.0
53024.0,STARLINK-4289,PAYLOAD,2024-01-06 08:57:45,15.08845614,0.0001561,53.219,45.4588,71.6972,288.419,4.7052e-05,4.61e-06,0.0,0 STARLINK-4289,1 53024U 22076AQ  24006.37344714  .00000461  00000-0  47052-4 0  9999,2 53024  53.2190  45.4588 0001561  71.6972 288.4190 15.08845614 83695,6917.863,95.437,540.808,538.648,0.0
53024.0,STARLINK-4289,PAYLOAD,2024-01-07 02:27:01,15.08828841,0.000167,53.2169,42.1895,72.5687,287.5488,3.1427e-05,2.12e-06,0.0,0 STARLINK-4289,1 53024U 22076AQ  24007.10209794  .00000212  00000-0  31427-4 0  9992,2 53024  53.2169  42.1895 0001670  72.5687 287.5488 15.08828841 83806,6917.914,95.438,540.935,538.624,0.0
53024.0,STARLINK-4289,PAYLOAD,2024-01-07 11:59:20,15.08832148,0.0001538,53.2176,40.4018,88.194,271.9228,-2.0799e-05,-6.19e-06,0.0,0 STARLINK-4289,1 53024U 22076AQ  24007.49953921 -.00000619  00000-0 -20799-4 0  9995,2 53024  53.2176  40.4018 0001538  88.1940 271.9228 15.08832148 83398,6917.904,95.438,540.833,538.705,0.0
53024.0,STARLINK-4289,PAYLOAD,2024-01-07 23:07:01,15.0884882,0.0001435,53.2182,38.3219,77.986,282.1293,-4.6581e-05,-1.029e-05,0.0,0 STARLINK-4289,1 53024U 22076AQ  24007.96321259 -.00001029  00000-0 -46581-4 0  9993,2 53024  53.2182  38.3219 0001435  77.9860 282.1293 15.08848820 83937,6917.853,95.437,540.711,538.726,0.0
53024.0,STARLINK-4289,PAYLOAD,2024-01-08 11:50:05,15.08860484,0.000153,53.2179,35.9415,86.5621,273.5547,3.6915e-05,3e-06,0.0,0 STARLINK-4289,1 53024U 22076AQ  24008.49311845  .00000300  00000-0  36915-4 0  9991,2 53024  53.2179  35.9415 0001530  86.5621 273.5547 15.08860484 84017,6917.818,95.436,540.741,538.624,0.0
53024.0,STARLINK-4289,PAYLOAD,2024-01-08 22:57:48,15.08830861,0.0002298,53.2178,33.8532,134.9754,225.1425,0.00015444,2.17e-05,0.0,0 STARLINK-4289,1 53024U 22076AQ  24008.95680988  .00002170  00000-0  15444-3 0  9999,2 53024  53.2178  33.8532 0002298 134.9754 225.1425 15.08830861 84081,6917.908,95.438,541.363,538.184,0.0
53024.0,STARLINK-4289,PAYLOAD,2024-01-09 11:40:53,15.08838243,0.0001546,53.2184,31.4799,102.0762,258.0404,8.8069e-05,1.114e-05,0.0,0 STARLINK-4289,1 53024U 22076AQ  24009.48673235  .00001114  00000-0  88069-4 0  9996,2 53024  53.2184  31.4799 0001546 102.0762 258.0404 15.08838243 83697,6917.886,95.438,540.82,538.681,0.0
53024.0,STARLINK-4289,PAYLOAD,2024-01-10 01:59:21,15.08843785,0.0001999,53.2173,28.8017,122.8352,237.2833,-5.9553e-05,-1.236e-05,0.0,0 STARLINK-4289,1 53024U 22076AQ  24010.08289317 -.00001236  00000-0 -59553-4 0  9991,2 53024  53.2173  28.8017 0001999 122.8352 237.2833 15.08843785 84250,6917.869,95.437,541.117,538.351,0.0
53024.0,STARLINK-4289,PAYLOAD,2024-01-10 06:45:31,15.08842384,0.00016,53.2172,27.9104,99.8097,260.3076,-3.3588e-05,-8.23e-06,0.0,0 STARLINK-4289,1 53024U 22076AQ  24010.28161429 -.00000823  00000-0 -33588-4 0  9997,2 53024  53.2172  27.9104 0001600  99.8097 260.3076 15.08842384 83815,6917.873,95.437,540.845,538.631,0.0
53024.0,STARLINK-4289,PAYLOAD,2024-01-11 09:47:04,15.08847412,0.0001519,53.2176,22.8554,98.6286,261.4878,0.00014558,2.03e-05,0.0,0 STARLINK-4289,1 53024U 22076AQ  24011.40768623  .00002030  00000-0  14558-3 0  9996,2 53024  53.2176  22.8554 0001519  98.6286 261.4878 15.08847412 84458,6917.858,95.437,540.774,538.672,0.0
53024.0,STARLINK-4289,PAYLOAD,2024-01-12 00:05:33,15.08837883,0.0001634,53.2198,20.1829,78.2324,281.8851,9.3988e-05,1.208e-05,0.0,0 STARLINK-4289,1 53024U 22076AQ  24012.00385504  .00001208  00000-0  93988-4 0  9997,2 53024  53.2198  20.1829 0001634  78.2324 281.8851 15.08837883 84541,6917.887,95.438,540.882,538.621,0.0
53024.0,STARLINK-4289,PAYLOAD,2024-01-12 09:37:51,15.08839987,0.0001579,53.2181,18.395,87.6143,272.503,8.2262e-05,1.021e-05,0.0,0 STARLINK-4289,1 53024U 22076AQ  24012.40129511  .00001021  00000-0  82262-4 0  9991,2 53024  53.2181  18.3950 0001579  87.6143 272.5030 15.08839987 84136,6917.88,95.438,540.838,538.653,0.0
53024.0,STARLINK-4289,PAYLOAD,2024-01-12 22:20:57,15.08836283,0.0001499,53.2182,16.0154,90.6385,269.4779,-2.8215e-05,-7.37e-06,0.0,0 STARLINK-4289,1 53024U 22076AQ  24012.93122111 -.00000737  00000-0 -28215-4 0  9991,2 53024  53.2182  16.0154 0001499  90.6385 269.4779 15.08836283 84682,6917.892,95.438,540.794,538.72,0.0
53024.0,STARLINK-4289,PAYLOAD,2024-01-13 09:28:38,15.0884671,0.0001477,53.2181,13.9309,91.3982,268.718,7.0937e-05,8.41e-06,0.0,0 STARLINK-4289,1 53024U 22076AQ  24013.39489154  .00000841  00000-0  70937-4 0  9997,2 53024  53.2181  13.9309 0001477  91.3982 268.7180 15.08846710 84758,6917.86,95.437,540.747,538.703,0.0
53024.0,STARLINK-4289,PAYLOAD,2024-01-14 04:33:16,15.08843987,0.0001401,53.219,10.364,106.4318,253.6828,6.66e-05,7.72e-06,0.0,0 STARLINK-4289,1 53024U 22076AQ  24014.18977370  .00000772  00000-0  66600-4 0  9992,2 53024  53.2190  10.3640 0001401 106.4318 253.6828 15.08843987 84873,6917.868,95.437,540.702,538.764,0.0
53024.0,STARLINK-4289,PAYLOAD,2024-01-14 09:19:25,15.08847194,0.0001585,53.2188,9.4692,117.76,242.3553,6.4151e-05,7.33e-06,0.0,0 STARLINK-4289,1 53024U 22076AQ  24014.38849113  .00000733  00000-0  64151-4 0  9993,2 53024  53.2188   9.4692 0001585 117.7600 242.3553 15.08847194 84434,6917.858,95.437,540.82,538.627,0.0
53024.0,STARLINK-4289,PAYLOAD,2024-01-15 02:48:40,15.08839632,0.0001561,53.2185,6.1967,111.8356,248.2803,6.5737e-05,7.58e-06,0.0,0 STARLINK-4289,1 53024U 22076AQ  24015.11713767  .00000758  00000-0  65737-4 0  9998,2 53024  53.2185   6.1967 0001561 111.8356 248.2803 15.08839632 85013,6917.882,95.438,540.826,538.667,0.0
53024.0,STARLINK-4289,PAYLOAD,2024-01-15 05:59:26,15.08843653,0.0001643,53.219,5.6042,97.8198,262.2981,9.0909e-05,1.159e-05,0.0,0 STARLINK-4289,1 53024U 22076AQ  24015.24961403  .00001159  00000-0  90909-4 0  9999,2 53024  53.2190   5.6042 0001643  97.8198 262.2981 15.08843653 84565,6917.869,95.437,540.871,538.598,0.0
53024.0,STARLINK-4289,PAYLOAD,2024-01-15 23:28:42,15.08833784,0.0001429,53.2182,2.3332,106.8551,253.2598,-2.236e-05,-6.44e-06,0.0,0 STARLINK-4289,1 53024U 22076AQ  24015.97826550 -.00000644  00000-0 -22360-4 0  9998,2 53024  53.2182   2.3332 0001429 106.8551 253.2598 15.08833784 85141,6917.899,95.438,540.753,538.776,0.0
53024.0,STARLINK-4289,PAYLOAD,2024-01-16 09:01:00,15.08838584,0.0001815,53.219,0.5507,111.1079,249.0107,2.4792e-05,1.06e-06,0.0,0 STARLINK-4289,1 53024U 22076AQ  24016.37570066  .00000106  00000-0  24792-4 0  9993,2 53024  53.2190   0.5507 0001815 111.1079 249.0107 15.08838584 85206,6917.885,95.438,541.005,538.494,0.0
53024.0,STARLINK-4289,PAYLOAD,2024-01-17 04:05:38,15.08844547,0.000184,53.2191,356.9826,115.6618,244.4565,4.1308e-05,3.69e-06,0.0,0 STARLINK-4289,1 53024U 22076AQ  24017.17057973  .00000369  00000-0  41308-4 0  9992,2 53024  53.2191 356.9826 0001840 115.6618 244.4565 15.08844547 84858,6917.866,95.437,541.004,538.459,0.0
53024.0,STARLINK-4289,PAYLOAD,2024-01-18 03:56:25,15.08837998,0.0001403,53.2182,352.5225,101.5676,258.5474,0.00010303,1.352e-05,0.0,0 STARLINK-4289,1 53024U 22076AQ  24018.16418582  .00001352  00000-0  10303-3 0  9992,2 53024  53.2182 352.5225 0001403 101.5676 258.5474 15.08837998 85472,6917.887,95.438,540.722,538.781,0.0
53024.0,STARLINK-4289,PAYLOAD,2024-01-18 07:07:11,15.08842444,0.0001546,53.2183,351.9279,104.2383,255.8781,0.00011913,1.609e-05,0.0,0 STARLINK-4289,1 53024U 22076AQ  24018.29666286  .00001609  00000-0  11913-3 0  9995,2 53024  53.2183 351.9279 0001546 104.2383 255.8781 15.08842444 85022,6917.873,95.437,540.807,538.668,0.0
53024.0,STARLINK-4289,PAYLOAD,2024-01-18 21:25:40,15.08836114,0.0001466,53.2184,349.256,100.6785,259.4372,1.6844e-05,-2e-07,0.0,0 STARLINK-4289,1 53024U 22076AQ  24018.89283066 -.00000020  00000-0  16844-4 0  9998,2 53024  53.2184 349.2560 0001466 100.6785 259.4372 15.08836114 85116,6917.892,95.438,540.771,538.743,0.0
53024.0,STARLINK-4289,PAYLOAD,2024-01-19 06:57:58,15.08854051,0.0001851,53.218,347.4664,119.5365,240.5812,9.2603e-05,1.186e-05,0.0,0 STARLINK-4289,1 53024U 22076AQ  24019.29025487  .00001186  00000-0  92603-4 0  9994,2 53024  53.2180 347.4664 0001851 119.5365 240.5812 15.08854051 85646,6917.837,95.437,540.983,538.422,0.0
53024.0,STARLINK-4289,PAYLOAD,2024-01-19 21:16:27,15.08839867,0.0001601,53.2186,344.7904,117.0367,243.0789,5.454e-05,5.8e-06,0.0,0 STARLINK-4289,1 53024U 22076AQ  24019.88642627  .00000580  00000-0  54540-4 0  9995,2 53024  53.2186 344.7904 0001601 117.0367 243.0789 15.08839867 85264,6917.881,95.438,540.853,538.638,0.0
53024.0,STARLINK-4289,PAYLOAD,2024-01-20 03:37:59,15.08844844,0.000155,53.2175,343.6036,110.5561,249.5598,9.2247e-05,1.181e-05,0.0,0 STARLINK-4289,1 53024U 22076AQ  24020.15138086  .00001181  00000-0  92247-4 0  9990,2 53024  53.2175 343.6036 0001550 110.5561 249.5598 15.08844844 85779,6917.866,95.437,540.803,538.658,0.0
53024.0,STARLINK-4289,PAYLOAD,2024-01-20 05:13:22,15.08846427,0.0001472,53.2178,343.3079,96.2161,263.8999,0.00011381,1.524e-05,0.0,0 STARLINK-4289,1 53024U 22076AQ  24020.21762084  .00001524  00000-0  11381-3 0  9998,2 53024  53.2178 343.3079 0001472  96.2161 263.8999 15.08846427 85318,6917.861,95.437,540.744,538.707,0.0
